stk.v.4.3 

BEGIN Ephemeris 
 
NumberOfEphemerisPoints		146 
ScenarioEpoch	    2 Jan 2020 14: 1:43.379054368 
InterpolationMethod		Lagrange 
InterpolationOrder		5 
CentralBody				Earth 
CoordinateSystem			TEME 
CoordinateSystemEpoch	  2 Jan 2020 14: 1:43.379054368 
DistanceUnit			Kilometers 
 
EphemerisTimePosVel 
 
       0.00000000   -4862.03750809   -5254.53575288       0.04254670  0.350120312 -0.311591589  7.448725130
 END Ephemeris 
